IRIDIUM 171             
1 43929U 19002H   24101.91646723  .00000206  00000+0  66362-4 0  9999
2 43929  86.3976 327.0059 0002091  82.5273 277.6160 14.34219861274688
IRIDIUM 170             
1 43930U 19002J   24101.90399562  .00001044  00000+0  16163-3 0  9990
2 43930  86.6096 326.8424 0002244  93.5997 266.5476 14.72268551281951
IRIDIUM 167             
1 43931U 19002K   24101.91012584  .00000097  00000+0  27659-4 0  9998
2 43931  86.3966 326.8059 0002080  84.4840 275.6593 14.34216574274682
IRIDIUM 181             
1 56726U 23068S   24101.80085095  .00000476  00000+0  13492-3 0  9996
2 56726  86.8693  17.2760 0002260  79.0179 281.1277 14.43564189 47413
IRIDIUM 177             
1 56727U 23068T   24101.75871145  .00001346  00000+0  17362-3 0  9997
2 56727  86.2008 347.3838 0002265  84.5622 275.5857 14.80241053 48404
IRIDIUM 174             
1 56728U 23068U   24101.95611678  .00001378  00000+0  17782-3 0  9994
2 56728  86.2016 347.3885 0002565  87.9310 272.2205 14.80240878 48438
IRIDIUM 178             
1 56729U 23068V   24101.74797501  .00001596  00000+0  20657-3 0  9999
2 56729  86.5833   1.7441 0002629  93.3644 266.7878 14.80236928 48402
IRIDIUM 179             
1 56730U 23068W   24101.74254863  .00001609  00000+0  20835-3 0  9993
2 56730  86.6845   5.0280 0002595  91.7880 268.3639 14.80238650 48409
